KUIPER-00218            
1 67780U 26030S   26058.93950830  .00020508  00000+0  60839-3 0  9990
2 67780  51.8826 266.2213 0006394  28.1072 332.0258 15.34774770  3599
KUIPER-00220            
1 67781U 26030T   26058.94405173  .00020434  00000+0  61542-3 0  9997
2 67781  51.8807 266.2454 0008068  30.0480 330.0967 15.34287707  3595
KUIPER-00222            
1 67782U 26030U   26058.95899264  .00005942  00000+0  19767-3 0  9996
2 67782  51.8818 266.3406 0017389  34.0178 326.1918 15.32460746  3596
KUIPER-00223            
1 67783U 26030V   26058.94903554  .00026943  00000+0  81875-3 0  9997
2 67783  51.8831 266.2829 0012271  31.7977 328.3747 15.33796882  3594
KUIPER-00225            
1 67784U 26030W   26058.93306000  .00027926  00000+0  80708-3 0  9996
2 67784  51.8801 266.1770 0003675  17.4083 342.7029 15.35423428  3591
KUIPER-00226            
1 67785U 26030X   26058.90144204  .00019791  00000+0  64900-3 0  9997
2 67785  51.8826 266.7027 0019705  43.2252 317.0275 15.31441543  3587
KUIPER-00259            
1 67786U 26030Y   26058.94112346  .00019636  00000+0  58597-3 0  9997
2 67786  51.8804 266.2268 0007944  23.2422 336.8921 15.34606871  3593
KUIPER-00260            
1 67787U 26030Z   26058.92737958  .00022948  00000+0  65428-3 0  9999
2 67787  51.8787 266.1384 0001040  86.9006 273.2099 15.35965569  3501
KUIPER-00262            
1 67788U 26030AA  26058.92497014  .00029993  00000+0  84259-3 0  9996
2 67788  51.8803 266.1249 0001216 138.4979 221.6100 15.36276884  3593
KUIPER-00266            
1 67789U 26030AB  26058.90463877  .00025081  00000+0  82822-3 0  9993
2 67789  51.8818 266.7211 0022329  42.9594 317.3129 15.31014429  3588
KUIPER-00268            
1 67790U 26030AC  26058.93095228  .00028639  00000+0  82279-3 0  9997
2 67790  51.8836 266.1681 0001877  28.4565 331.6523 15.35599211  3596
KUIPER-00270            
1 67791U 26030AD  26058.94503519  .00019494  00000+0  58915-3 0  9995
2 67791  51.8807 266.2514 0009943  29.1093 331.0445 15.34194734  3594
