CCSDS_OMM_VERS = 2.0
CREATION_DATE  = 
ORIGINATOR     = 

OBJECT_NAME    = KUIPER-00218
OBJECT_ID      = 2026-030S
CENTER_NAME    = EARTH
REF_FRAME      = TEME
TIME_SYSTEM    = UTC
MEAN_ELEMENT_THEORY = SGP/SGP4

EPOCH          = 2026-02-27T22:32:53.517120
MEAN_MOTION    = 15.34774770
ECCENTRICITY   = .00063949
INCLINATION    = 51.8826
RA_OF_ASC_NODE = 266.2213
ARG_OF_PERICENTER = 28.1072
MEAN_ANOMALY   = 332.0258

EPHEMERIS_TYPE = 0
CLASSIFICATION_TYPE = U
NORAD_CAT_ID   = 67780
ELEMENT_SET_NO = 999
REV_AT_EPOCH   = 359
BSTAR          = .60838634E-3
MEAN_MOTION_DOT = .20508E-3
MEAN_MOTION_DDOT = 0

CCSDS_OMM_VERS = 2.0
CREATION_DATE  = 
ORIGINATOR     = 

OBJECT_NAME    = KUIPER-00220
OBJECT_ID      = 2026-030T
CENTER_NAME    = EARTH
REF_FRAME      = TEME
TIME_SYSTEM    = UTC
MEAN_ELEMENT_THEORY = SGP/SGP4

EPOCH          = 2026-02-27T22:39:26.069472
MEAN_MOTION    = 15.34287707
ECCENTRICITY   = .00080687
INCLINATION    = 51.8807
RA_OF_ASC_NODE = 266.2454
ARG_OF_PERICENTER = 30.0480
MEAN_ANOMALY   = 330.0967

EPHEMERIS_TYPE = 0
CLASSIFICATION_TYPE = U
NORAD_CAT_ID   = 67781
ELEMENT_SET_NO = 999
REV_AT_EPOCH   = 359
BSTAR          = .61542086E-3
MEAN_MOTION_DOT = .20434E-3
MEAN_MOTION_DDOT = 0

CCSDS_OMM_VERS = 2.0
CREATION_DATE  = 
ORIGINATOR     = 

OBJECT_NAME    = KUIPER-00222
OBJECT_ID      = 2026-030U
CENTER_NAME    = EARTH
REF_FRAME      = TEME
TIME_SYSTEM    = UTC
MEAN_ELEMENT_THEORY = SGP/SGP4

EPOCH          = 2026-02-27T23:00:56.964096
MEAN_MOTION    = 15.32460746
ECCENTRICITY   = .00173896
INCLINATION    = 51.8818
RA_OF_ASC_NODE = 266.3406
ARG_OF_PERICENTER = 34.0178
MEAN_ANOMALY   = 326.1918

EPHEMERIS_TYPE = 0
CLASSIFICATION_TYPE = U
NORAD_CAT_ID   = 67782
ELEMENT_SET_NO = 999
REV_AT_EPOCH   = 359
BSTAR          = .19767484E-3
MEAN_MOTION_DOT = .5942E-4
MEAN_MOTION_DDOT = 0

CCSDS_OMM_VERS = 2.0
CREATION_DATE  = 
ORIGINATOR     = 

OBJECT_NAME    = KUIPER-00223
OBJECT_ID      = 2026-030V
CENTER_NAME    = EARTH
REF_FRAME      = TEME
TIME_SYSTEM    = UTC
MEAN_ELEMENT_THEORY = SGP/SGP4

EPOCH          = 2026-02-27T22:46:36.670656
MEAN_MOTION    = 15.33796882
ECCENTRICITY   = .00122718
INCLINATION    = 51.8831
RA_OF_ASC_NODE = 266.2829
ARG_OF_PERICENTER = 31.7977
MEAN_ANOMALY   = 328.3747

EPHEMERIS_TYPE = 0
CLASSIFICATION_TYPE = U
NORAD_CAT_ID   = 67783
ELEMENT_SET_NO = 999
REV_AT_EPOCH   = 359
BSTAR          = .81874628E-3
MEAN_MOTION_DOT = .26943E-3
MEAN_MOTION_DDOT = 0

CCSDS_OMM_VERS = 2.0
CREATION_DATE  = 
ORIGINATOR     = 

OBJECT_NAME    = KUIPER-00225
OBJECT_ID      = 2026-030W
CENTER_NAME    = EARTH
REF_FRAME      = TEME
TIME_SYSTEM    = UTC
MEAN_ELEMENT_THEORY = SGP/SGP4

EPOCH          = 2026-02-27T22:23:36.384000
MEAN_MOTION    = 15.35423428
ECCENTRICITY   = .00036753
INCLINATION    = 51.8801
RA_OF_ASC_NODE = 266.1770
ARG_OF_PERICENTER = 17.4083
MEAN_ANOMALY   = 342.7029

EPHEMERIS_TYPE = 0
CLASSIFICATION_TYPE = U
NORAD_CAT_ID   = 67784
ELEMENT_SET_NO = 999
REV_AT_EPOCH   = 359
BSTAR          = .80707728E-3
MEAN_MOTION_DOT = .27926E-3
MEAN_MOTION_DDOT = 0

CCSDS_OMM_VERS = 2.0
CREATION_DATE  = 
ORIGINATOR     = 

OBJECT_NAME    = KUIPER-00226
OBJECT_ID      = 2026-030X
CENTER_NAME    = EARTH
REF_FRAME      = TEME
TIME_SYSTEM    = UTC
MEAN_ELEMENT_THEORY = SGP/SGP4

EPOCH          = 2026-02-27T21:38:04.592256
MEAN_MOTION    = 15.31441543
ECCENTRICITY   = .00197053
INCLINATION    = 51.8826
RA_OF_ASC_NODE = 266.7027
ARG_OF_PERICENTER = 43.2252
MEAN_ANOMALY   = 317.0275

EPHEMERIS_TYPE = 0
CLASSIFICATION_TYPE = U
NORAD_CAT_ID   = 67785
ELEMENT_SET_NO = 999
REV_AT_EPOCH   = 358
BSTAR          = .64900255E-3
MEAN_MOTION_DOT = .19791E-3
MEAN_MOTION_DDOT = 0

CCSDS_OMM_VERS = 2.0
CREATION_DATE  = 
ORIGINATOR     = 

OBJECT_NAME    = KUIPER-00259
OBJECT_ID      = 2026-030Y
CENTER_NAME    = EARTH
REF_FRAME      = TEME
TIME_SYSTEM    = UTC
MEAN_ELEMENT_THEORY = SGP/SGP4

EPOCH          = 2026-02-27T22:35:13.066944
MEAN_MOTION    = 15.34606871
ECCENTRICITY   = .00079444
INCLINATION    = 51.8804
RA_OF_ASC_NODE = 266.2268
ARG_OF_PERICENTER = 23.2422
MEAN_ANOMALY   = 336.8921

EPHEMERIS_TYPE = 0
CLASSIFICATION_TYPE = U
NORAD_CAT_ID   = 67786
ELEMENT_SET_NO = 999
REV_AT_EPOCH   = 359
BSTAR          = .58596853E-3
MEAN_MOTION_DOT = .19636E-3
MEAN_MOTION_DDOT = 0

CCSDS_OMM_VERS = 2.0
CREATION_DATE  = 
ORIGINATOR     = 

OBJECT_NAME    = KUIPER-00260
OBJECT_ID      = 2026-030Z
CENTER_NAME    = EARTH
REF_FRAME      = TEME
TIME_SYSTEM    = UTC
MEAN_ELEMENT_THEORY = SGP/SGP4

EPOCH          = 2026-02-27T22:15:25.595712
MEAN_MOTION    = 15.35965569
ECCENTRICITY   = .00010407
INCLINATION    = 51.8787
RA_OF_ASC_NODE = 266.1384
ARG_OF_PERICENTER = 86.9006
MEAN_ANOMALY   = 273.2099

EPHEMERIS_TYPE = 0
CLASSIFICATION_TYPE = U
NORAD_CAT_ID   = 67787
ELEMENT_SET_NO = 999
REV_AT_EPOCH   = 350
BSTAR          = .65427596E-3
MEAN_MOTION_DOT = .22948E-3
MEAN_MOTION_DDOT = 0

CCSDS_OMM_VERS = 2.0
CREATION_DATE  = 
ORIGINATOR     = 

OBJECT_NAME    = KUIPER-00262
OBJECT_ID      = 2026-030AA
CENTER_NAME    = EARTH
REF_FRAME      = TEME
TIME_SYSTEM    = UTC
MEAN_ELEMENT_THEORY = SGP/SGP4

EPOCH          = 2026-02-27T22:11:57.420096
MEAN_MOTION    = 15.36276884
ECCENTRICITY   = .00012168
INCLINATION    = 51.8803
RA_OF_ASC_NODE = 266.1249
ARG_OF_PERICENTER = 138.4979
MEAN_ANOMALY   = 221.6100

EPHEMERIS_TYPE = 0
CLASSIFICATION_TYPE = U
NORAD_CAT_ID   = 67788
ELEMENT_SET_NO = 999
REV_AT_EPOCH   = 359
BSTAR          = .84258585E-3
MEAN_MOTION_DOT = .29993E-3
MEAN_MOTION_DDOT = 0

CCSDS_OMM_VERS = 2.0
CREATION_DATE  = 
ORIGINATOR     = 

OBJECT_NAME    = KUIPER-00266
OBJECT_ID      = 2026-030AB
CENTER_NAME    = EARTH
REF_FRAME      = TEME
TIME_SYSTEM    = UTC
MEAN_ELEMENT_THEORY = SGP/SGP4

EPOCH          = 2026-02-27T21:42:40.789728
MEAN_MOTION    = 15.31014429
ECCENTRICITY   = .00223291
INCLINATION    = 51.8818
RA_OF_ASC_NODE = 266.7211
ARG_OF_PERICENTER = 42.9594
MEAN_ANOMALY   = 317.3129

EPHEMERIS_TYPE = 0
CLASSIFICATION_TYPE = U
NORAD_CAT_ID   = 67789
ELEMENT_SET_NO = 999
REV_AT_EPOCH   = 358
BSTAR          = .82821615E-3
MEAN_MOTION_DOT = .25081E-3
MEAN_MOTION_DDOT = 0

CCSDS_OMM_VERS = 2.0
CREATION_DATE  = 
ORIGINATOR     = 

OBJECT_NAME    = KUIPER-00268
OBJECT_ID      = 2026-030AC
CENTER_NAME    = EARTH
REF_FRAME      = TEME
TIME_SYSTEM    = UTC
MEAN_ELEMENT_THEORY = SGP/SGP4

EPOCH          = 2026-02-27T22:20:34.276992
MEAN_MOTION    = 15.35599211
ECCENTRICITY   = .0001877
INCLINATION    = 51.8836
RA_OF_ASC_NODE = 266.1681
ARG_OF_PERICENTER = 28.4565
MEAN_ANOMALY   = 331.6523

EPHEMERIS_TYPE = 0
CLASSIFICATION_TYPE = U
NORAD_CAT_ID   = 67790
ELEMENT_SET_NO = 999
REV_AT_EPOCH   = 359
BSTAR          = .82278505E-3
MEAN_MOTION_DOT = .28639E-3
MEAN_MOTION_DDOT = 0

CCSDS_OMM_VERS = 2.0
CREATION_DATE  = 
ORIGINATOR     = 

OBJECT_NAME    = KUIPER-00270
OBJECT_ID      = 2026-030AD
CENTER_NAME    = EARTH
REF_FRAME      = TEME
TIME_SYSTEM    = UTC
MEAN_ELEMENT_THEORY = SGP/SGP4

EPOCH          = 2026-02-27T22:40:51.040416
MEAN_MOTION    = 15.34194734
ECCENTRICITY   = .00099433
INCLINATION    = 51.8807
RA_OF_ASC_NODE = 266.2514
ARG_OF_PERICENTER = 29.1093
MEAN_ANOMALY   = 331.0445

EPHEMERIS_TYPE = 0
CLASSIFICATION_TYPE = U
NORAD_CAT_ID   = 67791
ELEMENT_SET_NO = 999
REV_AT_EPOCH   = 359
BSTAR          = .58915383E-3
MEAN_MOTION_DOT = .19494E-3
MEAN_MOTION_DDOT = 0

